IRIDIUM 159             
1 43578U 18061K   24363.52354171  .00000575  00000+0  19815-3 0  9992
2 43578  86.3963 280.5351 0002199  84.0532 276.0914 14.34220560336605
IRIDIUM 176             
1 43923U 19002B   24363.09768875  .00002440  00000+0  38286-3 0  9990
2 43923  86.6104 217.5993 0002826  69.5436 290.6084 14.72258381320370
IRIDIUM 173             
1 43925U 19002D   24363.36447373  .00000479  00000+0  16387-3 0  9997
2 43925  86.3980 217.4546 0001881  83.4224 276.7186 14.34216224312157
IRIDIUM 169             
1 43926U 19002E   24363.39458171  .00000951  00000+0  30432-3 0  9991
2 43926  86.4223 249.0523 0001144  28.8926 331.2336 14.38607110313190
IRIDIUM 172             
1 43927U 19002F   24363.56743645  .00000470  00000+0  16065-3 0  9996
2 43927  86.3975 217.3762 0002118  86.6386 273.5052 14.34221251312197
