<?xml version="1.0" encoding="UTF-8"?>
<ndm xmlns:xsi="http://www.w3.org/2001/XMLSchema-instance" xsi:noNamespaceSchemaLocation="https://sanaregistry.org/r/ndmxml_unqualified/ndmxml-2.0.0-master-2.0.xsd">
<omm id="CCSDS_OMM_VERS" version="2.0">
<header><CREATION_DATE/><ORIGINATOR/></header><body><segment><metadata><OBJECT_NAME>IRIDIUM 159</OBJECT_NAME><OBJECT_ID>2018-061K</OBJECT_ID><CENTER_NAME>EARTH</CENTER_NAME><REF_FRAME>TEME</REF_FRAME><TIME_SYSTEM>UTC</TIME_SYSTEM><MEAN_ELEMENT_THEORY>SGP4</MEAN_ELEMENT_THEORY></metadata><data><meanElements><EPOCH>2024-12-28T12:33:54.003744</EPOCH><MEAN_MOTION>14.34220560</MEAN_MOTION><ECCENTRICITY>.0002199</ECCENTRICITY><INCLINATION>86.3963</INCLINATION><RA_OF_ASC_NODE>280.5351</RA_OF_ASC_NODE><ARG_OF_PERICENTER>84.0532</ARG_OF_PERICENTER><MEAN_ANOMALY>276.0914</MEAN_ANOMALY></meanElements><tleParameters><EPHEMERIS_TYPE>0</EPHEMERIS_TYPE><CLASSIFICATION_TYPE>U</CLASSIFICATION_TYPE><NORAD_CAT_ID>43578</NORAD_CAT_ID><ELEMENT_SET_NO>999</ELEMENT_SET_NO><REV_AT_EPOCH>33660</REV_AT_EPOCH><BSTAR>.19815E-3</BSTAR><MEAN_MOTION_DOT>.575E-5</MEAN_MOTION_DOT><MEAN_MOTION_DDOT>0</MEAN_MOTION_DDOT></tleParameters></data></segment></body></omm>
<omm id="CCSDS_OMM_VERS" version="2.0">
<header><CREATION_DATE/><ORIGINATOR/></header><body><segment><metadata><OBJECT_NAME>IRIDIUM 176</OBJECT_NAME><OBJECT_ID>2019-002B</OBJECT_ID><CENTER_NAME>EARTH</CENTER_NAME><REF_FRAME>TEME</REF_FRAME><TIME_SYSTEM>UTC</TIME_SYSTEM><MEAN_ELEMENT_THEORY>SGP4</MEAN_ELEMENT_THEORY></metadata><data><meanElements><EPOCH>2024-12-28T02:20:40.308000</EPOCH><MEAN_MOTION>14.72258381</MEAN_MOTION><ECCENTRICITY>.0002826</ECCENTRICITY><INCLINATION>86.6104</INCLINATION><RA_OF_ASC_NODE>217.5993</RA_OF_ASC_NODE><ARG_OF_PERICENTER>69.5436</ARG_OF_PERICENTER><MEAN_ANOMALY>290.6084</MEAN_ANOMALY></meanElements><tleParameters><EPHEMERIS_TYPE>0</EPHEMERIS_TYPE><CLASSIFICATION_TYPE>U</CLASSIFICATION_TYPE><NORAD_CAT_ID>43923</NORAD_CAT_ID><ELEMENT_SET_NO>999</ELEMENT_SET_NO><REV_AT_EPOCH>32037</REV_AT_EPOCH><BSTAR>.38286E-3</BSTAR><MEAN_MOTION_DOT>.244E-4</MEAN_MOTION_DOT><MEAN_MOTION_DDOT>0</MEAN_MOTION_DDOT></tleParameters></data></segment></body></omm>
<omm id="CCSDS_OMM_VERS" version="2.0">
<header><CREATION_DATE/><ORIGINATOR/></header><body><segment><metadata><OBJECT_NAME>IRIDIUM 173</OBJECT_NAME><OBJECT_ID>2019-002D</OBJECT_ID><CENTER_NAME>EARTH</CENTER_NAME><REF_FRAME>TEME</REF_FRAME><TIME_SYSTEM>UTC</TIME_SYSTEM><MEAN_ELEMENT_THEORY>SGP4</MEAN_ELEMENT_THEORY></metadata><data><meanElements><EPOCH>2024-12-28T08:44:50.530272</EPOCH><MEAN_MOTION>14.34216224</MEAN_MOTION><ECCENTRICITY>.0001881</ECCENTRICITY><INCLINATION>86.3980</INCLINATION><RA_OF_ASC_NODE>217.4546</RA_OF_ASC_NODE><ARG_OF_PERICENTER>83.4224</ARG_OF_PERICENTER><MEAN_ANOMALY>276.7186</MEAN_ANOMALY></meanElements><tleParameters><EPHEMERIS_TYPE>0</EPHEMERIS_TYPE><CLASSIFICATION_TYPE>U</CLASSIFICATION_TYPE><NORAD_CAT_ID>43925</NORAD_CAT_ID><ELEMENT_SET_NO>999</ELEMENT_SET_NO><REV_AT_EPOCH>31215</REV_AT_EPOCH><BSTAR>.16387E-3</BSTAR><MEAN_MOTION_DOT>.479E-5</MEAN_MOTION_DOT><MEAN_MOTION_DDOT>0</MEAN_MOTION_DDOT></tleParameters></data></segment></body></omm>
<omm id="CCSDS_OMM_VERS" version="2.0">
<header><CREATION_DATE/><ORIGINATOR/></header><body><segment><metadata><OBJECT_NAME>IRIDIUM 169</OBJECT_NAME><OBJECT_ID>2019-002E</OBJECT_ID><CENTER_NAME>EARTH</CENTER_NAME><REF_FRAME>TEME</REF_FRAME><TIME_SYSTEM>UTC</TIME_SYSTEM><MEAN_ELEMENT_THEORY>SGP4</MEAN_ELEMENT_THEORY></metadata><data><meanElements><EPOCH>2024-12-28T09:28:11.859744</EPOCH><MEAN_MOTION>14.38607110</MEAN_MOTION><ECCENTRICITY>.0001144</ECCENTRICITY><INCLINATION>86.4223</INCLINATION><RA_OF_ASC_NODE>249.0523</RA_OF_ASC_NODE><ARG_OF_PERICENTER>28.8926</ARG_OF_PERICENTER><MEAN_ANOMALY>331.2336</MEAN_ANOMALY></meanElements><tleParameters><EPHEMERIS_TYPE>0</EPHEMERIS_TYPE><CLASSIFICATION_TYPE>U</CLASSIFICATION_TYPE><NORAD_CAT_ID>43926</NORAD_CAT_ID><ELEMENT_SET_NO>999</ELEMENT_SET_NO><REV_AT_EPOCH>31319</REV_AT_EPOCH><BSTAR>.30432E-3</BSTAR><MEAN_MOTION_DOT>.951E-5</MEAN_MOTION_DOT><MEAN_MOTION_DDOT>0</MEAN_MOTION_DDOT></tleParameters></data></segment></body></omm>
<omm id="CCSDS_OMM_VERS" version="2.0">
<header><CREATION_DATE/><ORIGINATOR/></header><body><segment><metadata><OBJECT_NAME>IRIDIUM 172</OBJECT_NAME><OBJECT_ID>2019-002F</OBJECT_ID><CENTER_NAME>EARTH</CENTER_NAME><REF_FRAME>TEME</REF_FRAME><TIME_SYSTEM>UTC</TIME_SYSTEM><MEAN_ELEMENT_THEORY>SGP4</MEAN_ELEMENT_THEORY></metadata><data><meanElements><EPOCH>2024-12-28T13:37:06.509280</EPOCH><MEAN_MOTION>14.34221251</MEAN_MOTION><ECCENTRICITY>.0002118</ECCENTRICITY><INCLINATION>86.3975</INCLINATION><RA_OF_ASC_NODE>217.3762</RA_OF_ASC_NODE><ARG_OF_PERICENTER>86.6386</ARG_OF_PERICENTER><MEAN_ANOMALY>273.5052</MEAN_ANOMALY></meanElements><tleParameters><EPHEMERIS_TYPE>0</EPHEMERIS_TYPE><CLASSIFICATION_TYPE>U</CLASSIFICATION_TYPE><NORAD_CAT_ID>43927</NORAD_CAT_ID><ELEMENT_SET_NO>999</ELEMENT_SET_NO><REV_AT_EPOCH>31219</REV_AT_EPOCH><BSTAR>.16065E-3</BSTAR><MEAN_MOTION_DOT>.47E-5</MEAN_MOTION_DOT><MEAN_MOTION_DDOT>0</MEAN_MOTION_DDOT></tleParameters></data></segment></body></omm>

</ndm>
